STARLINK-30397          
1 57771U 23134A   26068.35850402 -.00005090  00000+0 -17551-3 0  9996
2 57771  42.9993 196.5752 0000740 162.6936 197.3941 15.27596688139457
FLOCK 4G-26             
1 62633U 25009AA  26068.80489479  .00011283  00000+0  42469-3 0  9999
2 62633  97.4054 151.3913 0001988 299.1273  60.9767 15.27281631 63733
